COSMOS 2361 [-]         
1 25590U 98076A   21273.49563834  .00000049  00000-0  36685-4 0  9993
2 25590  82.9366  38.3028 0030962 208.9887 221.2729 13.73001873140567
COSMOS 2378 [-]         
1 26818U 01023A   21273.63932666  .00000011  00000-0 -44525-5 0  9995
2 26818  82.9274  56.7113 0033310 155.8207 204.4526 13.73956997 18630
COSMOS 2389 [-]         
1 27436U 02026A   21274.50731306  .00000028  00000-0  13538-4 0  9997
2 27436  82.9553   1.5872 0046728  19.8434 350.9219 13.74959222970846
COSMOS 2398 [-]         
1 27818U 03023A   21273.75925288  .00000042  00000-0  29058-4 0  9999
2 27818  82.9497 322.9046 0032636  54.3919 306.0269 13.72195200917771
COSMOS 2407 [+]         
1 28380U 04028A   21274.07842222  .00000019  00000-0  40870-5 0  9992
2 28380  82.9565 268.4223 0040133  24.5745 335.7315 13.76096032863486
COSMOS 2414 [+]         
1 28521U 05002A   21274.46261073  .00000009  00000-0 -54806-5 0  9998
2 28521  82.9460 264.0119 0039601 190.1490 169.8884 13.87638008845639
COSMOS 2429 [-]         
1 32052U 07038A   21274.45480348  .00000020  00000-0  54499-5 0  9990
2 32052  82.9838  33.1255 0038337 359.3597   0.7503 13.74944990705407
COSMOS 2454 [-]         
1 35635U 09039A   21274.45659077  .00000025  00000-0  73921-5 0  9996
2 35635  82.9531 250.8430 0020072 135.1297 225.1499 13.89667106618726
COSMOS 2463 [+]         
1 36519U 10017A   21274.21052568  .00000044  00000-0  31737-4 0  9991
2 36519  82.9569  73.2242 0035173 220.5542 139.2993 13.71460071572251
